start=new Date('2021-10-04T00:00:00.000Z').valueOf();
sats=[{"TLE_LINE2":"2 48034  53.0574  34.7287 0001251  99.8676 260.2454 15.06392196 30772","LAUNCH_DATE":"2021-03-24","MEAN_MOTION_DOT":"-0.00001710","MEAN_ELEMENT_THEORY":"SGP4","PERIAPSIS":"546.371","MEAN_MOTION_DDOT":"0.0000000000000","BSTAR":"-0.00009594400000","INCLINATION":"53.0574","TIME_SYSTEM":"UTC","CLASSIFICATION_TYPE":"U","GP_ID":"186142199","ARG_OF_PERICENTER":"99.8676","APOAPSIS":"548.104","RA_OF_ASC_NODE":"34.7287","DECAY_DATE":null,"MEAN_ANOMALY":"260.2454","SEMIMAJOR_AXIS":"6925.372","MEAN_MOTION":"15.06392196","TLE_LINE1":"1 48034U 21024BK  21276.77249124 -.00001710  00000-0 -95944-4 0  9998","FILE":"3143202","ELEMENT_SET_NO":"999","REF_FRAME":"TEME","EPOCH":"2021-10-03T18:32:23.243136","OBJECT_ID":"2021-024BK","RCS_SIZE":"LARGE","REV_AT_EPOCH":"3077","COUNTRY_CODE":"US","EPHEMERIS_TYPE":"0","OBJECT_NAME":"STARLINK-2288","ECCENTRICITY":"0.00012510","NORAD_CAT_ID":"48034","OBJECT_TYPE":"PAYLOAD","PERIOD":"95.593","CENTER_NAME":"EARTH","SITE":"AFETR"},{"MEAN_ELEMENT_THEORY":"SGP4","PERIAPSIS":"346.053","TLE_LINE2":"2 48035  53.0452 322.5286 0005480 333.8117 328.5149 15.73206993  3721","LAUNCH_DATE":"2021-03-24","MEAN_MOTION_DOT":"-0.00032305","CLASSIFICATION_TYPE":"U","BSTAR":"-0.00022626000000","MEAN_MOTION_DDOT":"0.0000000000000","INCLINATION":"53.0452","TIME_SYSTEM":"UTC","ARG_OF_PERICENTER":"333.8117","APOAPSIS":"353.427","RA_OF_ASC_NODE":"322.5286","GP_ID":"186142464","DECAY_DATE":null,"SEMIMAJOR_AXIS":"6727.875","MEAN_MOTION":"15.73206993","TLE_LINE1":"1 48035U 21024BL  21276.91668981 -.00032305  00000-0 -22626-3 0  9991","FILE":"3143202","MEAN_ANOMALY":"328.5149","EPOCH":"2021-10-03T22:00:01.999584","OBJECT_ID":"2021-024BL","ELEMENT_SET_NO":"999","REF_FRAME":"TEME","COUNTRY_CODE":"US","EPHEMERIS_TYPE":"0","OBJECT_NAME":"STARLINK-2287","RCS_SIZE":"MEDIUM","REV_AT_EPOCH":"372","NORAD_CAT_ID":"48035","OBJECT_TYPE":"PAYLOAD","PERIOD":"91.533","CENTER_NAME":"EARTH","SITE":"AFETR","ECCENTRICITY":"0.00054800"},{"SEMIMAJOR_AXIS":"6925.373","MEAN_MOTION":"15.06392082","TLE_LINE1":"1 48036U 21024BM  21276.71351980  .00000935  00000-0  81677-4 0  9992","FILE":"3143202","MEAN_ANOMALY":"239.6461","EPOCH":"2021-10-03T17:07:28.110720","OBJECT_ID":"2021-024BM","ELEMENT_SET_NO":"999","REF_FRAME":"TEME","EPHEMERIS_TYPE":"0","COUNTRY_CODE":"US","OBJECT_NAME":"STARLINK-2295","RCS_SIZE":"LARGE","REV_AT_EPOCH":"3076","NORAD_CAT_ID":"48036","OBJECT_TYPE":"PAYLOAD","PERIOD":"95.593","SITE":"AFETR","CENTER_NAME":"EARTH","ECCENTRICITY":"0.00011000","MEAN_ELEMENT_THEORY":"SGP4","PERIAPSIS":"546.476","TLE_LINE2":"2 48036  53.0580  34.9997 0001100 120.4636 239.6461 15.06392082 30762","LAUNCH_DATE":"2021-03-24","MEAN_MOTION_DOT":"0.00000935","CLASSIFICATION_TYPE":"U","MEAN_MOTION_DDOT":"0.0000000000000","BSTAR":"0.00008167700000","INCLINATION":"53.0580","TIME_SYSTEM":"UTC","ARG_OF_PERICENTER":"120.4636","APOAPSIS":"548.000","RA_OF_ASC_NODE":"34.9997","GP_ID":"186142715","DECAY_DATE":null},{"OBJECT_ID":"2021-027A","EPOCH":"2021-10-03T16:40:30.046944","REF_FRAME":"TEME","ELEMENT_SET_NO":"999","FILE":"3143202","TLE_LINE1":"1 48092U 21027A   21276.69479221 -.00004051  00000-0 -24434-4 0  9996","MEAN_MOTION":"15.73180876","SEMIMAJOR_AXIS":"6727.950","MEAN_ANOMALY":"347.9618","SITE":"AFETR","CENTER_NAME":"EARTH","PERIOD":"91.534","OBJECT_TYPE":"PAYLOAD","NORAD_CAT_ID":"48092","ECCENTRICITY":"0.00036640","OBJECT_NAME":"STARLINK-2048","EPHEMERIS_TYPE":"0","COUNTRY_CODE":"US","REV_AT_EPOCH":"2944","RCS_SIZE":"LARGE","CLASSIFICATION_TYPE":"U","TIME_SYSTEM":"UTC","INCLINATION":"53.0451","BSTAR":"-0.00002443400000","MEAN_MOTION_DDOT":"0.0000000000000","PERIAPSIS":"347.350","MEAN_ELEMENT_THEORY":"SGP4","MEAN_MOTION_DOT":"-0.00004051","TLE_LINE2":"2 48092  53.0451 170.9849 0003664  12.1487 347.9618 15.73180876 29446","LAUNCH_DATE":"2021-04-07","DECAY_DATE":null,"RA_OF_ASC_NODE":"170.9849","APOAPSIS":"352.280","ARG_OF_PERICENTER":"12.1487","GP_ID":"186141719"},{"INCLINATION":"53.0558","TIME_SYSTEM":"UTC","BSTAR":"0.00000494590000","MEAN_MOTION_DDOT":"0.0000000000000","CLASSIFICATION_TYPE":"U","TLE_LINE2":"2 48093  53.0558 225.5180 0001661  62.2537 297.8620 15.06398555 28678","LAUNCH_DATE":"2021-04-07","MEAN_MOTION_DOT":"-0.00000208","PERIAPSIS":"546.068","MEAN_ELEMENT_THEORY":"SGP4","DECAY_DATE":null,"GP_ID":"186142957","APOAPSIS":"548.368","RA_OF_ASC_NODE":"225.5180","ARG_OF_PERICENTER":"62.2537","REF_FRAME":"TEME","ELEMENT_SET_NO":"999","EPOCH":"2021-10-03T14:17:34.833120","OBJECT_ID":"2021-027B","MEAN_ANOMALY":"297.8620","TLE_LINE1":"1 48093U 21027B   21276.59554205 -.00000208  00000-0  49459-5 0  9996","FILE":"3143202","SEMIMAJOR_AXIS":"6925.353","MEAN_MOTION":"15.06398555","ECCENTRICITY":"0.00016610","PERIOD":"95.592","CENTER_NAME":"EARTH","SITE":"AFETR","NORAD_CAT_ID":"48093","OBJECT_TYPE":"PAYLOAD","REV_AT_EPOCH":"2867","RCS_SIZE":"LARGE","COUNTRY_CODE":"US","EPHEMERIS_TYPE":"0","OBJECT_NAME":"STARLINK-2404"},{"DECAY_DATE":null,"GP_ID":"186101448","RA_OF_ASC_NODE":"236.8448","APOAPSIS":"548.138","ARG_OF_PERICENTER":"58.0001","INCLINATION":"53.0550","TIME_SYSTEM":"UTC","BSTAR":"0.00005839100000","MEAN_MOTION_DDOT":"0.0000000000000","CLASSIFICATION_TYPE":"U","TLE_LINE2":"2 48094  53.0550 236.8448 0001348  58.0001 302.1119 15.06403025 28496","LAUNCH_DATE":"2021-04-07","MEAN_MOTION_DOT":"0.00000588","PERIAPSIS":"546.271","MEAN_ELEMENT_THEORY":"SGP4","ECCENTRICITY":"0.00013480","PERIOD":"95.592","SITE":"AFETR","CENTER_NAME":"EARTH","NORAD_CAT_ID":"48094","OBJECT_TYPE":"PAYLOAD","REV_AT_EPOCH":"2849","RCS_SIZE":"LARGE","EPHEMERIS_TYPE":"0","COUNTRY_CODE":"US","OBJECT_NAME":"STARLINK-2412","REF_FRAME":"TEME","ELEMENT_SET_NO":"999","EPOCH":"2021-10-03T07:12:58.722624","OBJECT_ID":"2021-027C","MEAN_ANOMALY":"302.1119","FILE":"3142499","TLE_LINE1":"1 48094U 21027C   21276.30067966  .00000588  00000-0  58391-4 0  9993","SEMIMAJOR_AXIS":"6925.339","MEAN_MOTION":"15.06403025"},{"REF_FRAME":"TEME","ELEMENT_SET_NO":"999","EPOCH":"2021-10-03T07:23:35.946816","OBJECT_ID":"2021-027D","MEAN_ANOMALY":"295.2982","FILE":"3142499","TLE_LINE1":"1 48095U 21027D   21276.30805494 -.00000356  00000-0 -50370-5 0  9995","SEMIMAJOR_AXIS":"6925.357","MEAN_MOTION":"15.06397366","ECCENTRICITY":"0.00013720","PERIOD":"95.592","SITE":"AFETR","CENTER_NAME":"EARTH","NORAD_CAT_ID":"48095","OBJECT_TYPE":"PAYLOAD","REV_AT_EPOCH":"2850","RCS_SIZE":"LARGE","COUNTRY_CODE":"US","EPHEMERIS_TYPE":"0","OBJECT_NAME":"STARLINK-2414","INCLINATION":"53.0570","TIME_SYSTEM":"UTC","BSTAR":"-0.00000503700000","MEAN_MOTION_DDOT":"0.0000000000000","CLASSIFICATION_TYPE":"U","LAUNCH_DATE":"2021-04-07","TLE_LINE2":"2 48095  53.0570 236.8159 0001372  64.8149 295.2982 15.06397366 28505","MEAN_MOTION_DOT":"-0.00000356","PERIAPSIS":"546.271","MEAN_ELEMENT_THEORY":"SGP4","DECAY_DATE":null,"GP_ID":"186101698","RA_OF_ASC_NODE":"236.8159","APOAPSIS":"548.172","ARG_OF_PERICENTER":"64.8149"},{"CLASSIFICATION_TYPE":"U","BSTAR":"0.00002987100000","MEAN_MOTION_DDOT":"0.0000000000000","INCLINATION":"53.0570","TIME_SYSTEM":"UTC","MEAN_ELEMENT_THEORY":"SGP4","PERIAPSIS":"546.258","TLE_LINE2":"2 48096  53.0570 235.4429 0001402  76.0480 284.0665 15.06394869 28530","LAUNCH_DATE":"2021-04-07","MEAN_MOTION_DOT":"0.00000163","DECAY_DATE":null,"ARG_OF_PERICENTER":"76.0480","RA_OF_ASC_NODE":"235.4429","APOAPSIS":"548.200","GP_ID":"186142206","EPOCH":"2021-10-03T14:44:08.712672","OBJECT_ID":"2021-027E","ELEMENT_SET_NO":"999","REF_FRAME":"TEME","SEMIMAJOR_AXIS":"6925.364","MEAN_MOTION":"15.06394869","TLE_LINE1":"1 48096U 21027E   21276.61398973  .00000163  00000-0  29871-4 0  9994","FILE":"3143202","MEAN_ANOMALY":"284.0665","NORAD_CAT_ID":"48096","OBJECT_TYPE":"PAYLOAD","PERIOD":"95.592","CENTER_NAME":"EARTH","SITE":"AFETR","ECCENTRICITY":"0.00014020","COUNTRY_CODE":"US","EPHEMERIS_TYPE":"0","OBJECT_NAME":"STARLINK-2417","RCS_SIZE":"LARGE","REV_AT_EPOCH":"2853"},{"DECAY_DATE":null,"ARG_OF_PERICENTER":"54.6235","APOAPSIS":"548.422","RA_OF_ASC_NODE":"214.3338","GP_ID":"186142471","CLASSIFICATION_TYPE":"U","BSTAR":"-0.00018961000000","MEAN_MOTION_DDOT":"0.0000000000000","TIME_SYSTEM":"UTC","INCLINATION":"53.0548","MEAN_ELEMENT_THEORY":"SGP4","PERIAPSIS":"546.078","MEAN_MOTION_DOT":"-0.00003104","TLE_LINE2":"2 48097  53.0548 214.3338 0001692  54.6235 305.4912 15.06388192 28852","LAUNCH_DATE":"2021-04-07","OBJECT_TYPE":"PAYLOAD","NORAD_CAT_ID":"48097","SITE":"AFETR","CENTER_NAME":"EARTH","PERIOD":"95.593","ECCENTRICITY":"0.00016920","OBJECT_NAME":"STARLINK-2418","EPHEMERIS_TYPE":"0","COUNTRY_CODE":"US","RCS_SIZE":"LARGE","REV_AT_EPOCH":"2885","OBJECT_ID":"2021-027F","EPOCH":"2021-10-03T20:37:06.930336","ELEMENT_SET_NO":"999","REF_FRAME":"TEME","MEAN_MOTION":"15.06388192","SEMIMAJOR_AXIS":"6925.385","TLE_LINE1":"1 48097U 21027F   21276.85910799 -.00003104  00000-0 -18961-3 0  9994","FILE":"3143202","MEAN_ANOMALY":"305.4912"},{"MEAN_ANOMALY":"295.3571","FILE":"3143202","TLE_LINE1":"1 48098U 21027G   21276.57068179  .00000511  00000-0  53182-4 0  9992","SEMIMAJOR_AXIS":"6925.360","MEAN_MOTION":"15.06396144","REF_FRAME":"TEME","ELEMENT_SET_NO":"999","EPOCH":"2021-10-03T13:41:46.906656","OBJECT_ID":"2021-027G","REV_AT_EPOCH":"2866","RCS_SIZE":"LARGE","COUNTRY_CODE":"US","EPHEMERIS_TYPE":"0","OBJECT_NAME":"STARLINK-2421","ECCENTRICITY":"0.00014710","PERIOD":"95.592","CENTER_NAME":"EARTH","SITE":"AFETR","NORAD_CAT_ID":"48098","OBJECT_TYPE":"PAYLOAD","LAUNCH_DATE":"2021-04-07","TLE_LINE2":"2 48098  53.0558 225.6330 0001471  64.7570 295.3571 15.06396144 28663","MEAN_MOTION_DOT":"0.00000511","PERIAPSIS":"546.207","MEAN_ELEMENT_THEORY":"SGP4","INCLINATION":"53.0558","TIME_SYSTEM":"UTC","BSTAR":"0.00005318200000","MEAN_MOTION_DDOT":"0.0000000000000","CLASSIFICATION_TYPE":"U","GP_ID":"186142722","RA_OF_ASC_NODE":"225.6330","APOAPSIS":"548.244","ARG_OF_PERICENTER":"64.7570","DECAY_DATE":null}];
